NORAD_CAT_ID,OBJECT_NAME,OBJECT_TYPE,EPOCH,MEAN_MOTION,ECCENTRICITY,INCLINATION,RA_OF_ASC_NODE,ARG_OF_PERICENTER,MEAN_ANOMALY,BSTAR,MEAN_MOTION_DOT,MEAN_MOTION_DDOT,TLE_LINE0,TLE_LINE1,TLE_LINE2,SEMIMAJOR_AXIS,PERIOD,APOGEE,PERIGEE,DECAYED
51746.0,STARLINK-3502,PAYLOAD,2022-11-14 18:44:24,15.08860698,0.0002465,53.2176,345.105,30.4986,329.6149,0.00033075,4.983e-05,0.0,0 STARLINK-3502,1 51746U 22016AJ  22318.78084383  .00004983  00000-0  33075-3 0  9996,2 51746  53.2176 345.1050 0002465  30.4986 329.6149 15.08860698 42016,6917.816999999999,95.436,541.387,537.977,0.0
51746.0,STARLINK-3502,PAYLOAD,2022-11-15 12:13:40,15.08832851,0.0002543,53.2178,341.8341,31.9784,328.1362,-2.9059e-05,-7.51e-06,0.0,0 STARLINK-3502,1 51746U 22016AJ  22319.50949215 -.00000751  00000-0 -29059-4 0  9990,2 51746  53.2178 341.8341 0002543  31.9784 328.1362 15.08832851 41002,6917.901999999999,95.438,541.526,538.008,0.0
51746.0,STARLINK-3502,PAYLOAD,2022-11-15 18:35:12,15.08830104,0.0002366,53.2173,340.6453,27.5481,332.5637,-3.5524e-05,-8.54e-06,0.0,0 STARLINK-3502,1 51746U 22016AJ  22319.77445282 -.00000854  00000-0 -35524-4 0  9992,2 51746  53.2173 340.6453 0002366  27.5481 332.5637 15.08830104 41043,6917.911,95.438,541.4119999999998,538.139,0.0
51746.0,STARLINK-3502,PAYLOAD,2022-11-16 10:29:03,15.08840391,0.0002505,53.2183,337.6708,30.55,329.5637,0.00018346,2.633e-05,0.0,0 STARLINK-3502,1 51746U 22016AJ  22320.43685095  .00002633  00000-0  18346-3 0  9992,2 51746  53.2183 337.6708 0002505  30.5500 329.5637 15.08840391 42264,6917.879,95.438,541.477,538.011,0.0
51746.0,STARLINK-3502,PAYLOAD,2022-11-16 18:26:00,15.08836048,0.0002616,53.2184,336.1839,30.4302,329.6842,9.6193e-05,1.243e-05,0.0,0 STARLINK-3502,1 51746U 22016AJ  22320.76805647  .00001243  00000-0  96193-4 0  9998,2 51746  53.2184 336.1839 0002616  30.4302 329.6842 15.08836048 42315,6917.892,95.438,541.567,537.948,0.0
51746.0,STARLINK-3502,PAYLOAD,2022-11-17 07:09:04,15.0884844,0.0002581,53.2181,333.805,29.5119,330.6018,-9.9679e-06,-4.47e-06,0.0,0 STARLINK-3502,1 51746U 22016AJ  22321.29796821 -.00000447  00000-0 -99679-5 0  9990,2 51746  53.2181 333.8050 0002581  29.5119 330.6018 15.08848440 42391,6917.855,95.437,541.505,537.934,0.0
51746.0,STARLINK-3502,PAYLOAD,2022-11-17 08:44:27,15.0884226,0.0002583,53.2179,333.5080000000001,28.7244,331.389,8.0183e-05,9.88e-06,0.0,0 STARLINK-3502,1 51746U 22016AJ  22321.36421026  .00000988  00000-0  80183-4 0  9997,2 51746  53.2179 333.5080 0002583  28.7244 331.3890 15.08842260 41287,6917.873000000001,95.437,541.525,537.952,0.0
51746.0,STARLINK-3502,PAYLOAD,2022-11-17 18:16:46,15.08840798,0.0002601,53.2172,331.724,29.1358,330.9779,0.00011183,1.492e-05,0.0,0 STARLINK-3502,1 51746U 22016AJ  22321.76165056  .00001492  00000-0  11183-3 0  9993,2 51746  53.2172 331.7240 0002601  29.1358 330.9779 15.08840798 41342,6917.878000000002,95.438,541.5419999999998,537.944,0.0
51746.0,STARLINK-3502,PAYLOAD,2022-11-18 10:10:38,15.08836753,0.0002605,53.2177,328.7504,30.0477,330.0665,4.2298e-05,3.85e-06,0.0,0 STARLINK-3502,1 51746U 22016AJ  22322.42405281  .00000385  00000-0  42298-4 0  9996,2 51746  53.2177 328.7504 0002605  30.0477 330.0665 15.08836753 41445,6917.89,95.438,541.557,537.953,0.0
51746.0,STARLINK-3502,PAYLOAD,2022-11-18 18:07:34,15.08831752,0.0002638,53.2177,327.2626,29.2618,330.8521,-3.0659e-05,-7.76e-06,0.0,0 STARLINK-3502,1 51746U 22016AJ  22322.75526049 -.00000776  00000-0 -30659-4 0  9992,2 51746  53.2177 327.2626 0002638  29.2618 330.8521 15.08831752 42610,6917.906,95.438,541.596,537.946,0.0
51746.0,STARLINK-3502,PAYLOAD,2022-11-19 10:01:25,15.08842573,0.0002627,53.2173,324.2895,28.4804,331.6331,0.00016401,2.323e-05,0.0,0 STARLINK-3502,1 51746U 22016AJ  22323.41765570  .00002323  00000-0  16401-3 0  9996,2 51746  53.2173 324.2895 0002627  28.4804 331.6331 15.08842573 41594,6917.873000000001,95.437,541.555,537.92,0.0
51746.0,STARLINK-3502,PAYLOAD,2022-11-20 11:27:35,15.08843917,0.0002741,53.217,319.5319,28.181,331.93300000000005,0.00013963,1.935e-05,0.0,0 STARLINK-3502,1 51746U 22016AJ  22324.47749485  .00001935  00000-0  13963-3 0  9998,2 51746  53.2170 319.5319 0002741  28.1810 331.9330 15.08843917 42877,6917.868,95.437,541.63,537.837,0.0
51746.0,STARLINK-3502,PAYLOAD,2022-11-21 04:56:50,15.08838664,0.0002744,53.2173,316.2615,29.5676,330.5471,9.6017e-05,1.24e-05,0.0,0 STARLINK-3502,1 51746U 22016AJ  22325.20613814  .00001240  00000-0  96017-4 0  9997,2 51746  53.2173 316.2615 0002744  29.5676 330.5471 15.08838664 42987,6917.884,95.438,541.648,537.851,0.0
51746.0,STARLINK-3502,PAYLOAD,2022-11-21 22:26:03,15.08855633,0.0002862,53.2176,312.9906,30.2914,329.8243,-0.00013269,-2.401e-05,0.0,0 STARLINK-3502,1 51746U 22016AJ  22325.93476611 -.00002401  00000-0 -13269-3 0  9998,2 51746  53.2176 312.9906 0002862  30.2914 329.8243 15.08855633 41972,6917.833000000001,95.437,541.677,537.7180000000002,0.0
51746.0,STARLINK-3502,PAYLOAD,2022-11-22 09:33:46,15.08840824,0.0002654,53.2175,310.908,27.5526,332.5607,8.868e-05,1.123e-05,0.0,0 STARLINK-3502,1 51746U 22016AJ  22326.39845475  .00001123  00000-0  88680-4 0  9995,2 51746  53.2175 310.9080 0002654  27.5526 332.5607 15.08840824 43163,6917.878000000002,95.438,541.5790000000002,537.9069999999998,0.0
51746.0,STARLINK-3502,PAYLOAD,2022-11-23 04:38:24,15.08837384,0.0002699,53.2183,307.3398,28.9862,331.1280000000001,7.7183e-05,9.4e-06,0.0,0 STARLINK-3502,1 51746U 22016AJ  22327.19333959  .00000940  00000-0  77183-4 0  9995,2 51746  53.2183 307.3398 0002699  28.9862 331.1280 15.08837384 43283,6917.888000000001,95.438,541.621,537.886,0.0
51746.0,STARLINK-3502,PAYLOAD,2022-11-23 09:24:34,15.08834094,0.0002735,53.2181,306.4478,28.0489,332.065,0.00010799,1.4300000000000004e-05,0.0,0 STARLINK-3502,1 51746U 22016AJ  22327.39206154  .00001430  00000-0  10799-3 0  9997,2 51746  53.2181 306.4478 0002735  28.0489 332.0650 15.08834094 42192,6917.898,95.438,541.655,537.871,0.0
51746.0,STARLINK-3502,PAYLOAD,2022-11-23 15:46:06,15.08843775,0.0002744,53.2181,305.2585,27.7729,332.3409,8.1358e-05,1.007e-05,0.0,0 STARLINK-3502,1 51746U 22016AJ  22327.65701506  .00001007  00000-0  81358-4 0  9997,2 51746  53.2181 305.2585 0002744  27.7729 332.3409 15.08843775 42237,6917.869000000002,95.437,541.632,537.836,0.0
51746.0,STARLINK-3502,PAYLOAD,2022-11-24 04:29:12,15.08832091,0.0002793,53.2187,302.8799,29.4494,330.6655,1.4204000000000008e-05,-6.3e-07,0.0,0 STARLINK-3502,1 51746U 22016AJ  22328.18694554 -.00000063  00000-0  14204-4 0  9998,2 51746  53.2187 302.8799 0002793  29.4494 330.6655 15.08832091 43431,6917.905,95.438,541.702,537.837,0.0
51746.0,STARLINK-3502,PAYLOAD,2022-11-24 07:39:58,15.08831765,0.0002775,53.2181,302.2847,29.0559,331.0587,2.518800000000001e-05,1.12e-06,0.0,0 STARLINK-3502,1 51746U 22016AJ  22328.31942555  .00000112  00000-0  25188-4 0  9997,2 51746  53.2181 302.2847 0002775  29.0559 331.0587 15.08831765 42335,6917.906,95.438,541.69,537.851,0.0
51746.0,STARLINK-3502,PAYLOAD,2022-11-24 21:58:25,15.08850245,0.0002886,53.2184,299.6088,29.3981,330.7173,-6.742300000000001e-05,-1.362e-05,0.0,0 STARLINK-3502,1 51746U 22016AJ  22328.91557560 -.00001362  00000-0 -67423-4 0  9999,2 51746  53.2184 299.6088 0002886  29.3981 330.7173 15.08850245 43544,6917.849,95.437,541.711,537.7180000000002,0.0
51746.0,STARLINK-3502,PAYLOAD,2022-11-25 07:30:44,15.0884413,0.0002798,53.2179,297.8244,29.0993,331.0155,0.00012581,1.715e-05,0.0,0 STARLINK-3502,1 51746U 22016AJ  22329.31301510  .00001715  00000-0  12581-3 0  9990,2 51746  53.2179 297.8244 0002798  29.0993 331.0155 15.08844130 42486,6917.868,95.437,541.668,537.797,0.0
51746.0,STARLINK-3502,PAYLOAD,2022-11-25 15:27:40,15.08844752,0.0002811,53.2178,296.3379,29.7594,330.3558,9.0474e-05,1.152e-05,0.0,0 STARLINK-3502,1 51746U 22016AJ  22329.64421603  .00001152  00000-0  90474-4 0  9995,2 51746  53.2178 296.3379 0002811  29.7594 330.3558 15.08844752 42533,6917.866,95.437,541.675,537.786,0.0
51746.0,STARLINK-3502,PAYLOAD,2022-11-26 04:10:44,15.0884756,0.0002743,53.2172,293.9581,31.0442,329.0712,0.00017857,2.555e-05,0.0,0 STARLINK-3502,1 51746U 22016AJ  22330.17413076  .00002555  00000-0  17857-3 0  9991,2 51746  53.2172 293.9581 0002743  31.0442 329.0712 15.08847560 43737,6917.857,95.437,541.62,537.825,0.0
51746.0,STARLINK-3502,PAYLOAD,2022-11-26 07:21:30,15.08849728,0.0002792,53.2173,293.3636,31.3954,328.7205,0.00021405,3.121e-05,0.0,0 STARLINK-3502,1 51746U 22016AJ  22330.30660873  .00003121  00000-0  21405-3 0  9999,2 51746  53.2173 293.3636 0002792  31.3954 328.7205 15.08849728 42637,6917.851,95.437,541.6469999999998,537.784,0.0
51746.0,STARLINK-3502,PAYLOAD,2022-11-26 15:18:26,15.08845498,0.0002767,53.2168,291.8773,31.3424,328.7732,0.00014208,1.974e-05,0.0,0 STARLINK-3502,1 51746U 22016AJ  22330.63781248  .00001974  00000-0  14208-3 0  9992,2 51746  53.2168 291.8773 0002767  31.3424 328.7732 15.08845498 42680,6917.864000000001,95.437,541.643,537.814,0.0
51746.0,STARLINK-3502,PAYLOAD,2022-11-27 04:01:31,15.08846527,0.0002845,53.2162,289.4969,31.5714,328.5448,4.3872e-05,4.1e-06,0.0,0 STARLINK-3502,1 51746U 22016AJ  22331.16773058  .00000410  00000-0  43872-4 0  9995,2 51746  53.2162 289.4969 0002845  31.5714 328.5448 15.08846527 43884,6917.86,95.437,541.694,537.757,0.0
51746.0,STARLINK-3502,PAYLOAD,2022-11-27 07:12:18,15.08843114,0.0002817,53.2174,288.9037,28.8098,331.3049,9.7833e-06,-1.33e-06,0.0,0 STARLINK-3502,1 51746U 22016AJ  22331.30021328 -.00000133  00000-0  97833-5 0  9997,2 51746  53.2174 288.9037 0002817  28.8098 331.3049 15.08843114 42786,6917.871,95.437,541.685,537.7869999999998,0.0
51746.0,STARLINK-3502,PAYLOAD,2022-11-28 05:27:41,15.08848597,0.000284,53.218,284.7402,32.1725,327.944,2.7661e-05,1.52e-06,0.0,0 STARLINK-3502,1 51746U 22016AJ  22332.22756884  .00000152  00000-0  27661-4 0  9992,2 51746  53.2180 284.7402 0002840  32.1725 327.9440 15.08848597 44041,6917.854,95.437,541.684,537.754,0.0
